     2.11           N: GPS NAV DATA                         RINEX VERSION / TYPE
teqc  2018Jul24     UNAVCO Archive Ops  20180730 00:23:36UTCPGM / RUN BY / DATE
Solaris x86 5.10|AMD64|cc SC5.8 -xarch=amd64|=+|=+          COMMENT
    4.6566D-09  1.4901D-08 -5.9605D-08 -5.9605D-08          ION ALPHA
    7.9872D+04  6.5536D+04 -6.5536D+04 -3.9322D+05          ION BETA
    1.862645149231D-09 9.769962616701D-15   147456     2012 DELTA-UTC: A0,A1,T,W
                                                            END OF HEADER
22 18  7 29  8  0  0.0-4.726112820208D-04-1.170974428533D-11 0.000000000000D+00
    3.100000000000D+01-5.962500000000D+01 4.858773816004D-09-1.873548453613D+00
   -2.890825271606D-06 7.237913785502D-03 1.130998134613D-05 5.153763500214D+03
    2.880000000000D+04 1.043081283569D-07-2.893202281717D+00 1.601874828339D-07
    9.258793265446D-01 1.380312500000D+02-1.504199886592D+00-8.084265313528D-09
    3.096557555480D-10 1.000000000000D+00 2.012000000000D+03 0.000000000000D+00
    2.000000000000D+00 0.000000000000D+00-1.816079020500D-08 3.100000000000D+01
    2.161800000000D+04 4.000000000000D+00
 3 18  7 29  8  0  0.0 1.130765303969D-04 5.798028723802D-12 0.000000000000D+00
    9.500000000000D+01-5.990625000000D+01 4.059454806873D-09 1.999381339035D+00
   -3.080815076828D-06 1.575255184434D-03 1.148506999016D-05 5.153720985413D+03
    2.880000000000D+04-2.421438694000D-08-2.831326287556D+00 1.303851604462D-08
    9.617110954702D-01 1.550937500000D+02 5.200994370292D-01-7.762466195018D-09
    3.389426897521D-10 1.000000000000D+00 2.012000000000D+03 0.000000000000D+00
    2.000000000000D+00 0.000000000000D+00 1.862645149231D-09 9.500000000000D+01
    2.161800000000D+04 4.000000000000D+00
11 18  7 29  8  0  0.0-7.277401164174D-04 1.932676241267D-12 0.000000000000D+00
    6.800000000000D+01-3.543750000000D+01 5.813456439510D-09 2.292369716526D+00
   -1.849606633186D-06 1.703279069625D-02-3.613531589508D-07 5.153648448944D+03
    2.880000000000D+04 2.123415470123D-07 1.978270559252D+00 5.401670932770D-08
    9.059361982333D-01 3.530937500000D+02 1.789254287337D+00-8.774651213729D-09
   -2.321525272275D-10 1.000000000000D+00 2.012000000000D+03 0.000000000000D+00
    2.000000000000D+00 0.000000000000D+00-1.210719347000D-08 6.800000000000D+01
    2.161800000000D+04 4.000000000000D+00
23 18  7 29  8  0  0.0-2.137320116162D-04 5.684341886081D-13 0.000000000000D+00
    2.000000000000D+01 2.815625000000D+01 5.239146802922D-09-2.506172070481D+00
    1.111999154091D-06 1.265313616022D-02 6.092712283134D-06 5.153753629684D+03
    2.880000000000D+04 1.955777406693D-07-1.800107240618D+00-1.825392246246D-07
    9.430638697327D-01 2.526875000000D+02-2.338791202716D+00-8.197841473003D-09
    6.075253058675D-10 1.000000000000D+00 2.012000000000D+03 0.000000000000D+00
    2.000000000000D+00 0.000000000000D+00-2.002343535423D-08 2.000000000000D+01
    2.161800000000D+04 4.000000000000D+00
18 18  7 29  8  0  0.0 3.931578248739D-05 4.547473508865D-12 0.000000000000D+00
    4.100000000000D+01-1.113437500000D+02 4.653765276575D-09 2.704293254863D+00
   -5.692243576050D-06 1.486292539630D-02 3.043562173843D-06 5.153642045975D+03
    2.880000000000D+04 1.564621925354D-07 2.360951269268D+00-2.793967723846D-08
    9.504938960688D-01 3.127187500000D+02 1.328654898735D+00-8.136410342721D-09
   -3.085842823454D-10 1.000000000000D+00 2.012000000000D+03 0.000000000000D+00
    2.000000000000D+00 0.000000000000D+00-6.519258022308D-09 4.100000000000D+01
    2.161800000000D+04 4.000000000000D+00
 6 18  7 29  8  0  0.0 3.822590224445D-04-4.092726157978D-12 0.000000000000D+00
    8.200000000000D+01-9.496875000000D+01 4.240533778110D-09 3.139810215184D+00
   -4.861503839493D-06 1.020025461912D-03 4.116445779800D-06 5.153671493530D+03
    2.880000000000D+04 2.793967723846D-08 2.401140797586D+00-1.005828380585D-07
    9.718225745739D-01 3.091562500000D+02-1.060216864277D+00-8.057835641198D-09
   -3.046555472693D-10 1.000000000000D+00 2.012000000000D+03 0.000000000000D+00
    2.000000000000D+00 0.000000000000D+00 4.656612873077D-09 8.200000000000D+01
    2.244600000000D+04 4.000000000000D+00
 9 18  7 29  8  0  0.0 5.126511678100D-04-1.023181539495D-12 0.000000000000D+00
    2.300000000000D+01 2.725000000000D+01 5.095569393776D-09-8.782432306757D-01
    1.322478055954D-06 9.051895467564D-04 6.383284926415D-06 5.153568944931D+03
    2.880000000000D+04 0.000000000000D+00-1.797880963107D+00-3.166496753693D-08
    9.522421972812D-01 2.573437500000D+02 1.825690741748D+00-8.249272186727D-09
    4.968064082668D-10 1.000000000000D+00 2.012000000000D+03 0.000000000000D+00
    2.000000000000D+00 0.000000000000D+00 9.313225746155D-10 2.300000000000D+01
    2.329200000000D+04 4.000000000000D+00
26 18  7 29  7 59 44.0-6.872741505504D-05 1.205080479849D-11 0.000000000000D+00
    2.500000000000D+01 7.587500000000D+01 4.425898642158D-09 7.251352968186D-01
    3.982335329056D-06 2.807908807881D-03 1.104548573494D-05 5.153702390671D+03
    2.878400000000D+04 2.048909664154D-08 2.897245253323D-01-2.607703208923D-08
    9.554583700134D-01 1.590000000000D+02 9.871215875192D-02-7.928187383685D-09
   -2.825117677491D-10 1.000000000000D+00 2.012000000000D+03 0.000000000000D+00
    2.000000000000D+00 0.000000000000D+00 7.450580596924D-09 2.500000000000D+01
    2.407800000000D+04 4.000000000000D+00
 3 18  7 29  7 59 44.0 1.130774617195D-04 5.798028723802D-12 0.000000000000D+00
    1.700000000000D+01-5.990625000000D+01 4.059454806873D-09 1.997046360860D+00
   -3.080815076828D-06 1.575251691975D-03 1.148320734501D-05 5.153720985413D+03
    2.878400000000D+04-2.421438694000D-08-2.831326188078D+00 1.303851604462D-08
    9.617110881556D-01 1.550937500000D+02 5.201007229342D-01-7.762466195018D-09
    3.389426897521D-10 1.000000000000D+00 2.012000000000D+03 0.000000000000D+00
    2.000000000000D+00 0.000000000000D+00 1.862645149231D-09 1.700000000000D+01
    2.533800000000D+04 4.000000000000D+00
31 18  7 29  7 59 44.0 1.044431701303D-04-2.614797267597D-12 0.000000000000D+00
    2.400000000000D+01-2.803125000000D+01 4.840558771560D-09 2.100489775156D+00
   -1.234933733940D-06 8.794661494903D-03 7.519498467445D-06 5.153701669693D+03
    2.878400000000D+04 2.235174179077D-08-7.072828349748D-01 2.551823854446D-07
    9.625841883866D-01 2.361875000000D+02-1.223328685464D-01-8.058907114400D-09
   -5.539516457381D-10 1.000000000000D+00 2.012000000000D+03 0.000000000000D+00
    2.000000000000D+00 0.000000000000D+00-1.350417733192D-08 2.400000000000D+01
    2.601600000000D+04 4.000000000000D+00
16 18  7 29  8  0  0.0 1.585436984897D-05-1.591615728103D-12 0.000000000000D+00
    1.010000000000D+02 8.809375000000D+01 3.744798843046D-09-1.866380030677D-01
    4.559755325317D-06 9.973290725611D-03 1.084059476852D-05 5.153677453995D+03
    2.880000000000D+04 5.029141902924D-08 3.921870603710D-01 9.872019290924D-08
    9.867555039732D-01 1.824062500000D+02 5.225593864445D-01-7.717821478243D-09
   -1.789360248322D-10 1.000000000000D+00 2.012000000000D+03 0.000000000000D+00
    2.000000000000D+00 0.000000000000D+00-1.071020960808D-08 1.010000000000D+02
    2.692800000000D+04 4.000000000000D+00
 2 18  7 29  7 59 44.0 4.411954432726D-05-1.136868377216D-11 0.000000000000D+00
    1.500000000000D+01-1.000937500000D+02 4.573047628647D-09-3.017475326348D+00
   -5.014240741730D-06 1.796149555594D-02 3.267079591751D-06 5.153786956787D+03
    2.878400000000D+04 2.086162567139D-07 2.347033877119D+00-1.247972249985D-07
    9.511539881129D-01 3.093125000000D+02-1.843019525732D+00-8.001047561461D-09
   -2.135803250493D-10 1.000000000000D+00 2.012000000000D+03 0.000000000000D+00
    2.000000000000D+00 0.000000000000D+00-2.048909664154D-08 1.500000000000D+01
    2.791800000000D+04 4.000000000000D+00
29 18  7 29  8  0  0.0 4.060729406774D-04-6.934897101019D-12 0.000000000000D+00
    1.800000000000D+01 6.543750000000D+01 4.195889061336D-09-4.259236672818D-01
    3.384426236153D-06 8.518584072590D-04 2.471730113029D-06 5.153654466629D+03
    2.880000000000D+04 2.048909664154D-08 1.417919266280D+00 6.891787052155D-08
    9.840614818135D-01 3.434375000000D+02 1.442221771971D+00-8.110694985859D-09
    1.253623647028D-10 1.000000000000D+00 2.012000000000D+03 0.000000000000D+00
    2.000000000000D+00 0.000000000000D+00-1.024454832077D-08 1.800000000000D+01
    2.809800000000D+04 4.000000000000D+00
 7 18  7 29  8  0  0.0 1.509352587163D-04-6.480149750132D-12 0.000000000000D+00
    9.800000000000D+01-3.153125000000D+01 4.895203904892D-09 2.287805801255D+00
   -1.674517989159D-06 1.196987181902D-02 7.309019565582D-06 5.153646951675D+03
    2.880000000000D+04-2.253800630569D-07-7.200476846706D-01-1.806765794754D-07
    9.579388441694D-01 2.411250000000D+02-2.508032033304D+00-8.034620388475D-09
   -4.489472718845D-10 1.000000000000D+00 2.012000000000D+03 0.000000000000D+00
    2.800000000000D+00 0.000000000000D+00-1.117587089539D-08 9.800000000000D+01
    2.841600000000D+04 4.000000000000D+00
26 18  7 29 10  0  0.0-6.864080205560D-05 1.205080479849D-11 0.000000000000D+00
    2.600000000000D+01 6.934375000000D+01 4.548760902721D-09 1.778210028260D+00
    3.777444362640D-06 2.807275624946D-03 1.071393489838D-05 5.153699110031D+03
    3.600000000000D+04 6.891787052155D-08 2.896666669222D-01 1.043081283569D-07
    9.554566174375D-01 1.696562500000D+02 9.813575147367D-02-7.946402428129D-09
   -1.717928701483D-10 1.000000000000D+00 2.012000000000D+03 0.000000000000D+00
    2.000000000000D+00 0.000000000000D+00 7.450580596924D-09 2.600000000000D+01
    2.881800000000D+04 4.000000000000D+00
